FENGYUN 1C DEB          
1 29750U 99025AQ  17345.60745568 -.00000008  00000-0  22209-4 0  9997
2 29750  99.0862   4.2619 0036191 223.7557 262.1603 14.07469337559353
